{
  "norad_id": 56398,
  "name": "STARLINK-6288",
  "history": [
    {
      "epoch": "2026-04-11T10:12:48.212064Z",
      "apogee_km": 486.2602109292502,
      "perigee_km": 484.8682523194766,
      "latitude_deg": -5.014575743651122e-06,
      "longitude_deg": 9.096884024027094,
      "height_km": 485.71165176069513,
      "semi_major_axis_km": 6863.701231624364,
      "eccentricity": 0.0001014,
      "inclination_deg": 43.0022,
      "raan_deg": 1.943,
      "arg_perigee_deg": 237.7961,
      "mean_anomaly_deg": 122.2792,
      "mean_motion_rev_day": 15.26740427
    },
    {
      "epoch": "2026-04-12T23:53:49.093440Z",
      "apogee_km": 486.32787196643403,
      "perigee_km": 484.854641333427,
      "latitude_deg": 1.9090194973933288e-05,
      "longitude_deg": 153.43972636375838,
      "height_km": 485.5827898612556,
      "semi_major_axis_km": 6863.728256649931,
      "eccentricity": 0.00010732,
      "inclination_deg": 43.0018,
      "raan_deg": 353.0871,
      "arg_perigee_deg": 253.038,
      "mean_anomaly_deg": 107.0354,
      "mean_motion_rev_day": 15.2673141
    },
    {
      "epoch": "2026-04-14T08:52:10.976736Z",
      "apogee_km": 486.3135696221516,
      "perigee_km": 484.83965576096216,
      "latitude_deg": 1.0135466052617412e-05,
      "longitude_deg": 9.743695026021044,
      "height_km": 485.73212502772543,
      "semi_major_axis_km": 6863.713612691557,
      "eccentricity": 0.00010737,
      "inclination_deg": 42.9988,
      "raan_deg": 345.3364,
      "arg_perigee_deg": 239.0211,
      "mean_anomaly_deg": 121.0535,
      "mean_motion_rev_day": 15.26736296
    },
    {
      "epoch": "2026-04-15T08:25:17.803200Z",
      "apogee_km": 486.3982940549022,
      "perigee_km": 484.68443356745865,
      "latitude_deg": -3.575524844552948e-05,
      "longitude_deg": 9.962862130908995,
      "height_km": 485.4319558277929,
      "semi_major_axis_km": 6863.67836381118,
      "eccentricity": 0.00012485,
      "inclination_deg": 43.0007,
      "raan_deg": 339.8013,
      "arg_perigee_deg": 262.3633,
      "mean_anomaly_deg": 97.7076,
      "mean_motion_rev_day": 15.26748057
    },
    {
      "epoch": "2026-04-16T07:58:24.456000Z",
      "apogee_km": 486.2937244104387,
      "perigee_km": 484.7727350875266,
      "latitude_deg": 3.92714990676149e-06,
      "longitude_deg": 10.182746348638863,
      "height_km": 485.48884615407735,
      "semi_major_axis_km": 6863.670229748982,
      "eccentricity": 0.0001108,
      "inclination_deg": 43.0013,
      "raan_deg": 334.2661,
      "arg_perigee_deg": 256.3873,
      "mean_anomaly_deg": 103.6855,
      "mean_motion_rev_day": 15.26750771
    },
    {
      "epoch": "2026-04-17T21:39:23.924736Z",
      "apogee_km": 486.26014283765835,
      "perigee_km": 484.8319476696015,
      "latitude_deg": 5.555614295059354e-05,
      "longitude_deg": 154.53212386281155,
      "height_km": 485.50733277318886,
      "semi_major_axis_km": 6863.68304525363,
      "eccentricity": 0.00010404,
      "inclination_deg": 43.0022,
      "raan_deg": 325.4108,
      "arg_perigee_deg": 255.0161,
      "mean_anomaly_deg": 105.0576,
      "mean_motion_rev_day": 15.26746495
    },
    {
      "epoch": "2026-04-18T07:04:38.760384Z",
      "apogee_km": 486.2695027489135,
      "perigee_km": 484.82730517183245,
      "latitude_deg": 1.8352221764261268e-05,
      "longitude_deg": 10.619271098421393,
      "height_km": 485.5040872802116,
      "semi_major_axis_km": 6863.685403960372,
      "eccentricity": 0.00010506,
      "inclination_deg": 43.002,
      "raan_deg": 323.1967,
      "arg_perigee_deg": 255.6246,
      "mean_anomaly_deg": 104.4489,
      "mean_motion_rev_day": 15.26745708
    },
    {
      "epoch": "2026-04-19T14:28:48.129312Z",
      "apogee_km": 486.328020390235,
      "perigee_km": 484.7905524220805,
      "latitude_deg": -1.1590640387877208e-05,
      "longitude_deg": -109.09125785510983,
      "height_km": 485.4775827928835,
      "semi_major_axis_km": 6863.696286406158,
      "eccentricity": 0.000112,
      "inclination_deg": 42.9998,
      "raan_deg": 315.8149,
      "arg_perigee_deg": 259.3699,
      "mean_anomaly_deg": 100.7026,
      "mean_motion_rev_day": 15.26742077
    },
    {
      "epoch": "2026-04-20T06:10:53.297184Z",
      "apogee_km": 486.38906886203404,
      "perigee_km": 484.7445254322374,
      "latitude_deg": -1.9032580867110366e-05,
      "longitude_deg": 11.053565298198832,
      "height_km": 485.4528815765908,
      "semi_major_axis_km": 6863.703797147135,
      "eccentricity": 0.0001198,
      "inclination_deg": 43.0023,
      "raan_deg": 312.1261,
      "arg_perigee_deg": 262.3659,
      "mean_anomaly_deg": 97.7056,
      "mean_motion_rev_day": 15.26739571
    },
    {
      "epoch": "2026-04-21T19:51:52.371072Z",
      "apogee_km": 486.3438603576269,
      "perigee_km": 484.75972098473994,
      "latitude_deg": -6.072043530946152e-05,
      "longitude_deg": 155.4032868910576,
      "height_km": 485.4149490909843,
      "semi_major_axis_km": 6863.688790671183,
      "eccentricity": 0.0001154,
      "inclination_deg": 43.0021,
      "raan_deg": 303.2696,
      "arg_perigee_deg": 263.7406,
      "mean_anomaly_deg": 96.3313,
      "mean_motion_rev_day": 15.26744578
    },
    {
      "epoch": "2026-04-22T19:25:00.034752Z",
      "apogee_km": 486.4745520374627,
      "perigee_km": 484.62547475605334,
      "latitude_deg": -1.7992061859878284e-06,
      "longitude_deg": 155.61676374547167,
      "height_km": 485.29196419727293,
      "semi_major_axis_km": 6863.687013396758,
      "eccentricity": 0.0001347,
      "inclination_deg": 42.9996,
      "raan_deg": 297.7322,
      "arg_perigee_deg": 272.154,
      "mean_anomaly_deg": 87.9157,
      "mean_motion_rev_day": 15.26745171
    },
    {
      "epoch": "2026-04-22T20:59:12.698592Z",
      "apogee_km": 486.4341176262078,
      "perigee_km": 484.70171850488805,
      "latitude_deg": -1.9835233182159795e-05,
      "longitude_deg": 131.63169317410188,
      "height_km": 485.2182620122747,
      "semi_major_axis_km": 6863.704918065548,
      "eccentricity": 0.0001262,
      "inclination_deg": 43.0053,
      "raan_deg": 297.3644,
      "arg_perigee_deg": 278.4259,
      "mean_anomaly_deg": 81.6449,
      "mean_motion_rev_day": 15.26739197
    },
    {
      "epoch": "2026-04-22T20:59:12.699456Z",
      "apogee_km": 486.4343921744039,
      "perigee_km": 484.70144395669104,
      "latitude_deg": -1.6726506786845293e-05,
      "longitude_deg": 131.63169287892106,
      "height_km": 485.2182217886966,
      "semi_major_axis_km": 6863.704918065548,
      "eccentricity": 0.00012624,
      "inclination_deg": 43.0053,
      "raan_deg": 297.3644,
      "arg_perigee_deg": 278.4259,
      "mean_anomaly_deg": 81.6449,
      "mean_motion_rev_day": 15.26739197
    }
  ]
}